     2.100          NAVIGATION                              RINEX VERSION / TYPE
fic2rin                                 03/03/2016 00:17:48 PGM / RUN BY / DATE
                                                            END OF HEADER
17 16  3  2  4  0  0.0 -.201450660825D-03 -.454747350886D-12  .000000000000D+00
     .400000000000D+02 -.569375000000D+02  .420910389750D-08 -.313684581358D+01
    -.283122062683D-05  .110003951704D-01  .748410820961D-05  .515365132713D+04
     .273600000000D+06  .147148966789D-06 -.166416542742D+01 -.169500708580D-06
     .975200314905D+00  .239625000000D+03 -.194305350119D+01 -.776353766822D-08
     .121433629627D-10  .100000000000D+01  .188600000000D+04  .000000000000D+00
     .240000000000D+01  .000000000000D+00 -.107102096081D-07  .400000000000D+02
     .266406000000D+06  .400000000000D+01
18 16  3  2  4  0  0.0  .489177647978D-03  .397903932026D-11  .000000000000D+00
     .900000000000D+02 -.731250000000D+01  .542058293189D-08 -.157763353191D+01
    -.277534127235D-06  .167340490734D-01  .702403485775D-05  .515365934181D+04
     .273600000000D+06  .387430191040D-06  .355378561024D+00  .257045030594D-06
     .925336804838D+00  .223250000000D+03 -.190861942614D+01 -.835034782550D-08
    -.182150444440D-09  .100000000000D+01  .188600000000D+04  .000000000000D+00
     .240000000000D+01  .000000000000D+00 -.111758708954D-07  .900000000000D+02
     .266406000000D+06  .400000000000D+01
19 16  3  2  4  0  0.0 -.525072216988D-03 -.227373675443D-12  .000000000000D+00
     .130000000000D+03 -.420000000000D+02  .433982362822D-08 -.766886526759D-02
    -.210106372833D-05  .107314215275D-01  .777468085289D-05  .515360720062D+04
     .273600000000D+06  .279396772385D-07 -.161513821203D+01  .137835741043D-06
     .972276728714D+00  .237125000000D+03  .718322177185D+00 -.813605318499D-08
     .178578867098D-10  .100000000000D+01  .188600000000D+04  .000000000000D+00
     .240000000000D+01  .000000000000D+00 -.153668224812D-07  .130000000000D+03
     .266406000000D+06  .400000000000D+01
20 16  3  2  4  0  0.0  .396494753659D-03  .261479726760D-11  .000000000000D+00
     .590000000000D+02 -.131875000000D+02  .544951270836D-08  .238814814960D+01
    -.765547156334D-06  .483153050300D-02  .680610537529D-05  .515369727516D+04
     .273600000000D+06  .502914190292D-07  .303451492361D+00 -.540167093277D-07
     .926603191577D+00  .228906250000D+03  .133988088735D+01 -.843142263117D-08
    -.146077513286D-09  .100000000000D+01  .188600000000D+04  .000000000000D+00
     .240000000000D+01  .000000000000D+00 -.838190317154D-08  .590000000000D+02
     .266406000000D+06  .400000000000D+01
21 16  3  2  4  0  0.0 -.512975733727D-03 -.170530256582D-11  .000000000000D+00
     .800000000000D+02 -.425000000000D+01  .536200906349D-08 -.707955262344D+00
    -.633299350739D-07  .232273706933D-01  .786036252975D-05  .515365683174D+04
     .273600000000D+06 -.260770320892D-06 -.686569544663D+00  .294297933578D-06
     .935860316281D+00  .217781250000D+03 -.182258032921D+01 -.885001149564D-08
     .202151277555D-09  .100000000000D+01  .188600000000D+04  .000000000000D+00
     .240000000000D+01  .000000000000D+00 -.116415321827D-07  .800000000000D+02
     .266406000000D+06  .400000000000D+01
22 16  3  2  4  0  0.0  .388486310840D-03 -.636646291241D-11  .000000000000D+00
     .360000000000D+02 -.114062500000D+02  .544129808048D-08 -.294936590262D+01
    -.726431608200D-06  .770653458312D-02  .727549195290D-05  .515507558823D+04
     .273600000000D+06  .596046447754D-07  .356134399593D+00 -.353902578354D-07
     .923193758589D+00  .217218750000D+03 -.201619491985D+01 -.830677458193D-08
    -.914323799542D-10  .100000000000D+01  .188600000000D+04  .000000000000D+00
     .240000000000D+01  .000000000000D+00 -.176951289177D-07  .360000000000D+02
     .266406000000D+06  .400000000000D+01
23 16  3  2  4  0  0.0 -.162661075592D-03 -.181898940355D-11  .000000000000D+00
     .160000000000D+02  .256562500000D+02  .476769859378D-08  .186579914541D+01
     .137835741043D-05  .105324649485D-01  .964291393757D-05  .515372225380D+04
     .273600000000D+06 -.223517417908D-06  .143171895643D+01  .372529029846D-07
     .946223938094D+00  .187937500000D+03 -.260771197527D+01 -.818641242551D-08
    -.253581991279D-09  .100000000000D+01  .188600000000D+04  .000000000000D+00
     .240000000000D+01  .000000000000D+00 -.200234353542D-07  .160000000000D+02
     .266406000000D+06  .400000000000D+01
24 16  3  2  4  0  0.0 -.132685527205D-04 -.568434188608D-12  .000000000000D+00
     .590000000000D+02  .621875000000D+02  .479091384651D-08  .124766969077D+01
     .313855707645D-05  .432958069723D-02  .626780092716D-05  .515363462067D+04
     .273600000000D+06  .186264514923D-08  .245812433287D+01  .726431608200D-07
     .950391401102D+00  .252500000000D+03  .379788681894D+00 -.831248910568D-08
     .107147320259D-10  .100000000000D+01  .188600000000D+04  .000000000000D+00
     .240000000000D+01  .000000000000D+00  .232830643654D-08  .590000000000D+02
     .266406000000D+06  .400000000000D+01
25 16  3  2  4  0  0.0 -.126613769680D-03 -.682121026330D-11  .000000000000D+00
     .600000000000D+02 -.190000000000D+02  .438518266046D-08 -.661916724220D+00
    -.910833477974D-06  .523792777676D-02  .520795583725D-05  .515354638672D+04
     .273600000000D+06 -.372529029846D-08 -.275547362381D+01  .391155481339D-07
     .978819939962D+00  .290062500000D+03  .704962159749D+00 -.816355433052D-08
    -.300012496725D-10  .100000000000D+01  .188600000000D+04  .000000000000D+00
     .240000000000D+01  .000000000000D+00  .558793544769D-08  .600000000000D+02
     .266406000000D+06  .400000000000D+01
26 16  3  2  4  0  0.0 -.276206061244D-03 -.151203494170D-10  .000000000000D+00
     .220000000000D+02 -.199687500000D+02  .473055418943D-08 -.131931910268D+01
    -.120885670185D-05  .903709791601D-03  .474601984024D-05  .515371715736D+04
     .273600000000D+06 -.372529029846D-08 -.276292497656D+01  .167638063431D-07
     .960825648211D+00  .286468750000D+03 -.426596362365D-01 -.835534803378D-08
    -.185722021782D-10  .100000000000D+01  .188600000000D+04  .000000000000D+00
     .240000000000D+01  .000000000000D+00  .698491930962D-08  .220000000000D+02
     .266406000000D+06  .400000000000D+01
27 16  3  2  4  0  0.0  .679567456245D-04  .363797880709D-11  .000000000000D+00
     .530000000000D+02 -.583125000000D+02  .433732352408D-08 -.309042879807D+01
    -.297464430332D-05  .328673445620D-02  .863894820213D-05  .515363722801D+04
     .273600000000D+06 -.558793544769D-07 -.171358509253D+01 -.167638063431D-07
     .970149562441D+00  .217593750000D+03  .206352740608D+00 -.792175854447D-08
     .432160858377D-10  .100000000000D+01  .188600000000D+04  .000000000000D+00
     .240000000000D+01  .000000000000D+00  .139698386192D-08  .530000000000D+02
     .266406000000D+06  .400000000000D+01
28 16  3  2  4  0  0.0  .506189651787D-03  .272848410532D-11  .000000000000D+00
     .200000000000D+02 -.120625000000D+02  .392159192147D-08 -.238099343860D+01
    -.527128577232D-06  .198763760272D-01  .469945371151D-05  .515362672424D+04
     .273600000000D+06  .253319740295D-06 -.268180655235D+01  .130385160446D-06
     .989706515489D+00  .297937500000D+03 -.162065930582D+01 -.760567394971D-08
     .112147528538D-09  .100000000000D+01  .188600000000D+04  .000000000000D+00
     .240000000000D+01  .000000000000D+00 -.107102096081D-07  .200000000000D+02
     .266406000000D+06  .400000000000D+01
29 16  3  2  4  0  0.0  .655182171613D-03  .568434188608D-12  .000000000000D+00
     .870000000000D+02 -.457500000000D+02  .428553565262D-08 -.592003806306D+00
    -.230781733990D-05  .105652969796D-02  .827945768833D-05  .515360853386D+04
     .273600000000D+06  .130385160446D-07 -.165452379811D+01 -.745058059692D-08
     .976139057733D+00  .230812500000D+03 -.528884203041D+00 -.793961643118D-08
     .682171272315D-10  .100000000000D+01  .188600000000D+04  .000000000000D+00
     .340000000000D+01  .000000000000D+00 -.102445483208D-07  .870000000000D+02
     .266406000000D+06  .400000000000D+01
30 16  3  2  4  0  0.0  .102326273918D-03  .409272615798D-11  .000000000000D+00
     .540000000000D+02  .535937500000D+02  .471126767178D-08  .420571446900D+00
     .283494591713D-05  .173104950227D-02  .660121440887D-05  .515363328743D+04
     .273600000000D+06  .558793544769D-08  .254916422068D+01  .558793544769D-08
     .953128459386D+00  .247750000000D+03  .299461965103D+01 -.826070123422D-08
     .102861427448D-09  .100000000000D+01  .188600000000D+04  .000000000000D+00
     .240000000000D+01  .000000000000D+00  .325962901115D-08  .540000000000D+02
     .266406000000D+06  .400000000000D+01
31 16  3  2  4  0  0.0  .280267093331D-03 -.170530256582D-11  .000000000000D+00
     .310000000000D+02  .616562500000D+02  .433982362822D-08  .242305650854D+00
     .329129397869D-05  .831417180598D-02  .611133873463D-05  .515370415878D+04
     .273600000000D+06  .819563865662D-07  .251275699537D+01 -.126659870148D-06
     .972161854535D+00  .264406250000D+03 -.419733396724D+00 -.821784230612D-08
     .160720980388D-09  .100000000000D+01  .188600000000D+04  .000000000000D+00
     .240000000000D+01  .000000000000D+00 -.135041773319D-07  .310000000000D+02
     .266406000000D+06  .400000000000D+01
32 16  3  2  4  0  0.0  .935653224587D-05  .250111042988D-11  .000000000000D+00
     .850000000000D+02  .384375000000D+02  .424910556373D-08  .878466963515D+00
     .199489295483D-05  .828898046166D-04  .956095755100D-05  .516564526176D+04
     .273600000000D+06 -.167638063431D-07  .142664151449D+01  .391155481339D-07
     .959887288667D+00  .192937500000D+03  .216039925193D+00 -.775318009393D-08
    -.109647424398D-09  .100000000000D+01  .188600000000D+04  .000000000000D+00
     .340000000000D+01  .630000000000D+02  .279396772385D-08  .850000000000D+02
     .266406000000D+06  .400000000000D+01
